STARLINK-2130_new
1 17405C 21005BJ  21326.11059013  .00007266  00000-0  48683-3 0  3269
2 17405  53.0402 263.3057 0001813  69.9310   4.9583 15.06390412    14
STARLINK-2130_old
1 27405C 21005BJ  21325.15869625  .00007185  00000-0  48156-3 0  3254
2 27405  53.0401 267.5801 0001728  70.6080 239.3090 15.06376700    15
